NORAD_CAT_ID,OBJECT_NAME,OBJECT_TYPE,EPOCH,MEAN_MOTION,ECCENTRICITY,INCLINATION,RA_OF_ASC_NODE,ARG_OF_PERICENTER,MEAN_ANOMALY,BSTAR,MEAN_MOTION_DOT,MEAN_MOTION_DDOT,TLE_LINE0,TLE_LINE1,TLE_LINE2,SEMIMAJOR_AXIS,PERIOD,APOGEE,PERIGEE,DECAYED
50825.0,STARLINK-3332,PAYLOAD,2023-01-27 19:15:18,15.08834428,0.0001142,53.214,232.8085,78.96,281.1521,-1.5703999999999998e-06,-3.13e-06,0.0,0 STARLINK-3332,1 50825U 22001Y   23027.80230210 -.00000313  00000-0 -15704-5 0  9996,2 50825  53.2140 232.8085 0001142  78.9600 281.1521 15.08834428 60046,6917.897,95.438,540.552,538.972,0.0
50825.0,STARLINK-3332,PAYLOAD,2023-01-27 20:50:42,15.0882724,0.0001142,53.2138,232.5111,81.4262,278.6859,0.00017309,2.467e-05,0.0,0 STARLINK-3332,1 50825U 22001Y   23027.86854574  .00002467  00000-0  17309-3 0  9998,2 50825  53.2138 232.5111 0001142  81.4262 278.6859 15.08827240 58780,6917.919,95.438,540.5740000000001,538.994,0.0
50825.0,STARLINK-3332,PAYLOAD,2023-01-28 14:19:56,15.08838687,0.0001178,53.2134,229.2391,84.0066,276.106,0.00011241,1.502e-05,0.0,0 STARLINK-3332,1 50825U 22001Y   23028.59718088  .00001502  00000-0  11241-3 0  9996,2 50825  53.2134 229.2391 0001178  84.0066 276.1060 15.08838687 58895,6917.884,95.438,540.564,538.934,0.0
50825.0,STARLINK-3332,PAYLOAD,2023-01-28 22:16:51,15.08844331,0.000126,53.2148,227.7534,87.9022,272.2115,0.00015953,2.252e-05,0.0,0 STARLINK-3332,1 50825U 22001Y   23028.92837841  .00002252  00000-0  15953-3 0  9999,2 50825  53.2148 227.7534 0001260  87.9022 272.2115 15.08844331 60218,6917.867,95.437,540.604,538.86,0.0
50825.0,STARLINK-3332,PAYLOAD,2023-01-29 12:35:20,15.08838952,0.0001294,53.2146,225.077,88.9546,271.1594,0.00012865,1.76e-05,0.0,0 STARLINK-3332,1 50825U 22001Y   23029.52454129  .00001760  00000-0  12865-3 0  9992,2 50825  53.2146 225.0770 0001294  88.9546 271.1594 15.08838952 60309,6917.884,95.438,540.644,538.853,0.0
50825.0,STARLINK-3332,PAYLOAD,2023-01-29 22:07:39,15.08842425,0.0001291,53.2145,223.2927,88.0229,272.0911,0.00012929,1.77e-05,0.0,0 STARLINK-3332,1 50825U 22001Y   23029.92197964  .00001770  00000-0  12929-3 0  9999,2 50825  53.2145 223.2927 0001291  88.0229 272.0911 15.08842425 59095,6917.873,95.437,540.631,538.845,0.0
50825.0,STARLINK-3332,PAYLOAD,2023-01-30 12:26:07,15.08840508,0.0001272,53.214,220.616,87.5202,272.5936,6.2856e-05,7.13e-06,0.0,0 STARLINK-3332,1 50825U 22001Y   23030.51814085  .00000713  00000-0  62856-4 0  9997,2 50825  53.2140 220.6160 0001272  87.5202 272.5936 15.08840508 59186,6917.879,95.438,540.624,538.864,0.0
50825.0,STARLINK-3332,PAYLOAD,2023-01-30 21:58:26,15.08843692,0.0001263,53.2148,218.8318,88.4105,271.7032,4.7745e-05,4.72e-06,0.0,0 STARLINK-3332,1 50825U 22001Y   23030.91558029  .00000472  00000-0  47745-4 0  9996,2 50825  53.2148 218.8318 0001263  88.4105 271.7032 15.08843692 60514,6917.869,95.437,540.608,538.86,0.0
50825.0,STARLINK-3332,PAYLOAD,2023-01-31 12:16:54,15.08842261,0.0001269,53.2145,216.1554,88.0658,272.048,8.2158e-05,1.02e-05,0.0,0 STARLINK-3332,1 50825U 22001Y   23031.51173965  .00001020  00000-0  82158-4 0  9992,2 50825  53.2145 216.1554 0001269  88.0658 272.0480 15.08842261 59339,6917.873,95.437,540.616,538.861,0.0
50825.0,STARLINK-3332,PAYLOAD,2023-01-31 18:38:26,15.08844472,0.000127,53.2145,214.9658,88.0759,272.0379,9.4045e-05,1.209e-05,0.0,0 STARLINK-3332,1 50825U 22001Y   23031.77669740  .00001209  00000-0  94045-4 0  9998,2 50825  53.2145 214.9658 0001270  88.0759 272.0379 15.08844472 59371,6917.867,95.437,540.61,538.853,0.0
50825.0,STARLINK-3332,PAYLOAD,2023-02-01 12:07:41,15.08839345,0.0001239,53.2136,211.6942,89.1078,271.0057,7.0249e-05,8.3e-06,0.0,0 STARLINK-3332,1 50825U 22001Y   23032.50534061  .00000830  00000-0  70249-4 0  9996,2 50825  53.2136 211.6942 0001239  89.1078 271.0057 15.08839345 60751,6917.882,95.438,540.605,538.89,0.0
50825.0,STARLINK-3332,PAYLOAD,2023-02-02 10:23:05,15.08840209,0.0001208,53.2135,207.5313,86.5181,273.5949,5.7596e-05,6.29e-06,0.0,0 STARLINK-3332,1 50825U 22001Y   23033.43270066  .00000629  00000-0  57596-4 0  9997,2 50825  53.2135 207.5313 0001208  86.5181 273.5949 15.08840209 59620,6917.88,95.438,540.58,538.909,0.0
50825.0,STARLINK-3332,PAYLOAD,2023-02-03 03:52:19,15.08843861,0.0001596,53.2135,204.2608,89.5419,270.5756,9.9812e-05,1.301e-05,0.0,0 STARLINK-3332,1 50825U 22001Y   23034.16133605  .00001301  00000-0  99812-4 0  9990,2 50825  53.2135 204.2608 0001596  89.5419 270.5756 15.08843861 61003,6917.869,95.437,540.838,538.629,0.0
50825.0,STARLINK-3332,PAYLOAD,2023-02-03 11:49:15,15.08841836,0.0001901,53.2158,202.7747,100.2914,259.8292,2.8348e-05,1.63e-06,0.0,0 STARLINK-3332,1 50825U 22001Y   23034.49253829  .00000163  00000-0  28348-4 0  9998,2 50825  53.2158 202.7747 0001901 100.2914 259.8292 15.08841836 59783,6917.875,95.437,541.055,538.425,0.0
50825.0,STARLINK-3332,PAYLOAD,2023-02-04 03:43:07,15.08934766,0.0001312,53.2126,199.8017,115.5722,244.5406,-0.0013182,-0.0002126,0.0,0 STARLINK-3332,1 50825U 22001Y   23035.15494307 -.00021260  00000-0 -13182-2 0  9991,2 50825  53.2126 199.8017 0001312 115.5722 244.5406 15.08934766 61153,6917.591,95.432,540.363,538.548,0.0
50825.0,STARLINK-3332,PAYLOAD,2023-02-04 11:40:01,15.08913958,0.0001538,53.2138,198.3139,124.12,235.9939,-0.0010738,-0.00017372,0.0,0 STARLINK-3332,1 50825U 22001Y   23035.48612810 -.00017372  00000-0 -10738-2 0  9991,2 50825  53.2138 198.3139 0001538 124.1200 235.9939 15.08913958 59930,6917.654,95.433,540.583,538.455,0.0
50825.0,STARLINK-3332,PAYLOAD,2023-02-04 19:36:56,15.08871159,0.000138,53.2144,196.8263,120.1003,240.0126,-0.00086092,-0.00013975,0.0,0 STARLINK-3332,1 50825U 22001Y   23035.81732056 -.00013975  00000-0 -86092-3 0  9995,2 50825  53.2144 196.8263 0001380 120.1003 240.0126 15.08871159 61259,6917.785,95.436,540.605,538.695,0.0
50825.0,STARLINK-3332,PAYLOAD,2023-02-05 03:33:54,15.08830474,0.0001176,53.2149,195.3395,103.4093,256.703,0.00011924,1.61e-05,0.0,0 STARLINK-3332,1 50825U 22001Y   23036.14854702  .00001610  00000-0  11924-3 0  9998,2 50825  53.2149 195.3395 0001176 103.4093 256.7030 15.08830474 61309,6917.91,95.438,540.588,538.961,0.0
50825.0,STARLINK-3332,PAYLOAD,2023-02-05 11:30:50,15.08830617,0.0001234,53.2153,193.8529,104.1398,255.9731,8.6313e-05,1.086e-05,0.0,0 STARLINK-3332,1 50825U 22001Y   23036.47974945  .00001086  00000-0  86313-4 0  9998,2 50825  53.2153 193.8529 0001234 104.1398 255.9731 15.08830617 60089,6917.909,95.438,540.628,538.92,0.0
50825.0,STARLINK-3332,PAYLOAD,2023-02-05 19:27:45,15.08836928,0.0001117,53.2159,192.3657,100.6145,259.4973,0.00013414,1.847e-05,0.0,0 STARLINK-3332,1 50825U 22001Y   23036.81094810  .00001847  00000-0  13414-3 0  9996,2 50825  53.2159 192.3657 0001117 100.6145 259.4973 15.08836928 60136,6917.89,95.438,540.528,538.982,0.0
50825.0,STARLINK-3332,PAYLOAD,2023-02-06 09:46:14,15.08839091,0.0001143,53.216,189.6891,94.9604,265.1519,0.0001149,1.541e-05,0.0,0 STARLINK-3332,1 50825U 22001Y   23037.40711024  .00001541  00000-0  11490-3 0  9998,2 50825  53.2160 189.6891 0001143  94.9604 265.1519 15.08839091 61495,6917.883,95.438,540.539,538.957,0.0
50825.0,STARLINK-3332,PAYLOAD,2023-02-06 19:18:32,15.0884934,0.00011,53.2146,187.9048,90.6509,269.4609,0.00022536,3.301e-05,0.0,0 STARLINK-3332,1 50825U 22001Y   23037.80454449  .00003301  00000-0  22536-3 0  9996,2 50825  53.2146 187.9048 0001100  90.6509 269.4609 15.08849340 61556,6917.852,95.437,540.478,538.956,0.0
50825.0,STARLINK-3332,PAYLOAD,2023-02-07 14:23:10,15.08848543,0.0001161,53.2146,184.3366,96.9286,263.1838,0.00025332,3.747e-05,0.0,0 STARLINK-3332,1 50825U 22001Y   23038.59942429  .00003747  00000-0  25332-3 0  9994,2 50825  53.2146 184.3366 0001161  96.9286 263.1838 15.08848543 61670,6917.854,95.437,540.522,538.916,0.0
50825.0,STARLINK-3332,PAYLOAD,2023-02-07 15:58:33,15.08852472,0.0001191,53.2144,184.0389,95.6426,264.4702,0.00025754,3.815e-05,0.0,0 STARLINK-3332,1 50825U 22001Y   23038.66566217  .00003815  00000-0  25754-3 0  9993,2 50825  53.2144 184.0389 0001191  95.6426 264.4702 15.08852472 60416,6917.842,95.437,540.531,538.883,0.0
50825.0,STARLINK-3332,PAYLOAD,2023-02-08 14:13:56,15.08851189,0.0001523,53.2149,179.8766,97.3971,262.7194,0.00019429,2.806e-05,0.0,0 STARLINK-3332,1 50825U 22001Y   23039.59302059  .00002806  00000-0  19429-3 0  9999,2 50825  53.2149 179.8766 0001523  97.3971 262.7194 15.08851189 60550,6917.846,95.437,540.765,538.658,0.0
50825.0,STARLINK-3332,PAYLOAD,2023-02-08 15:49:19,15.08855792,0.0001494,53.2152,179.5779,102.232,257.884,0.00024024,3.539e-05,0.0,0 STARLINK-3332,1 50825U 22001Y   23039.65925810  .00003539  00000-0  24024-3 0  9993,2 50825  53.2152 179.5779 0001494 102.2320 257.8840 15.08855792 61835,6917.832,95.437,540.731,538.664,0.0
50825.0,STARLINK-3332,PAYLOAD,2023-02-08 19:00:06,15.08858614,0.0001619,53.2155,178.9832,106.7191,253.3979,0.00029923,4.48e-05,0.0,0 STARLINK-3332,1 50825U 22001Y   23039.79173648  .00004480  00000-0  29923-3 0  9991,2 50825  53.2155 178.9832 0001619 106.7191 253.3979 15.08858614 60586,6917.823,95.436,540.808,538.568,0.0
50825.0,STARLINK-3332,PAYLOAD,2023-02-09 20:26:16,15.08840497,0.0001759,53.2149,174.2273,74.4427,285.676,-8.2516e-05,-1.601e-05,0.0,0 STARLINK-3332,1 50825U 22001Y   23040.85157551 -.00001601  00000-0 -82516-4 0  9997,2 50825  53.2149 174.2273 0001759  74.4427 285.6760 15.08840497 62011,6917.879,95.438,540.961,538.527,0.0
50825.0,STARLINK-3332,PAYLOAD,2023-02-10 20:17:03,15.08851058,0.0001163,53.215,169.765,89.5996,270.5129,0.00074143,0.00011535,0.0,0 STARLINK-3332,1 50825U 22001Y   23041.84517433  .00011535  00000-0  74143-3 0  9997,2 50825  53.2150 169.7650 0001163  89.5996 270.5129 15.08851058 60899,6917.847,95.437,540.516,538.907,0.0
50825.0,STARLINK-3332,PAYLOAD,2023-02-11 01:03:13,15.08810507,9.93e-05,53.2156,168.8753,86.5704,273.5401,-0.00025042,-4.268e-05,0.0,0 STARLINK-3332,1 50825U 22001Y   23042.04390525 -.00004268  00000-0 -25042-3 0  9992,2 50825  53.2156 168.8753 0000993  86.5704 273.5401 15.08810507 62198,6917.971,95.439,540.522,539.149,0.0
